{"type": "FeatureCollection", "features": [ {"type": "Feature", "properties": {"norad_id": 40701, "name": "GAOFEN-8", "group": "resource", "lat": 55.35938829875741, "lon": 3.7164393560663735, "alt_km": 436.47726515256454, "timestamp": "2025-12-19T22:41:52.036313+00:00", "meta": {"OBJECT_NAME": "GAOFEN-8", "OBJECT_ID": "2015-030A", "EPOCH": "2025-12-19T19:02:27.015072", "MEAN_MOTION": 15.38779416, "ECCENTRICITY": 0.0011902, "INCLINATION": 97.69, "RA_OF_ASC_NODE": 172.2783, "ARG_OF_PERICENTER": 114.0939, "MEAN_ANOMALY": 246.1552, "EPHEMERIS_TYPE": 0, "CLASSIFICATION_TYPE": "U", "NORAD_CAT_ID": 40701, "ELEMENT_SET_NO": 999, "REV_AT_EPOCH": 58379, "BSTAR": 0.00043881, "MEAN_MOTION_DOT": 0.00016791, "MEAN_MOTION_DDOT": 0}, "tle": {"line1": "1 40701U 15030A   25353.79336823  .00016791  00000+0  43881-3 0  9990", "line2": "2 40701  97.6900 172.2783 0011902 114.0939 246.1552 15.38779416583793"}}, "geometry": {"type": "Point", "coordinates": [3.7164393560663735, 55.35938829875741]}}, {"type": "Feature", "properties": {"norad_id": 40718, "name": "CARBONITE 1 (CBNT-1)", "group": "resource", "lat": 46.15725570211231, "lon": 166.63825876899887, "alt_km": 620.3262370976772, "timestamp": "2025-12-19T22:41:52.036323+00:00", "meta": {"OBJECT_NAME": "CARBONITE 1 (CBNT-1)", "OBJECT_ID": "2015-032D", "EPOCH": "2025-12-19T19:14:53.961216", "MEAN_MOTION": 14.82776712, "ECCENTRICITY": 0.0014953, "INCLINATION": 97.6394, "RA_OF_ASC_NODE": 174.5345, "ARG_OF_PERICENTER": 158.3276, "MEAN_ANOMALY": 201.8574, "EPHEMERIS_TYPE": 0, "CLASSIFICATION_TYPE": "U", "NORAD_CAT_ID": 40718, "ELEMENT_SET_NO": 999, "REV_AT_EPOCH": 56275, "BSTAR": 0.00029345, "MEAN_MOTION_DOT": 2.326e-05, "MEAN_MOTION_DDOT": 0}, "tle": {"line1": "1 40718U 15032D   25353.80201344  .00002326  00000+0  29345-3 0  9999", "line2": "2 40718  97.6394 174.5345 0014953 158.3276 201.8574 14.82776712562750"}}, "geometry": {"type": "Point", "coordinates": [166.63825876899887, 46.15725570211231]}}, {"type": "Feature", "properties": {"norad_id": 40878, "name": "YAOGAN-27", "group": "resource", "lat": 69.68601905504443, "lon": -167.97768370495578, "alt_km": 1198.3991336082863, "timestamp": "2025-12-19T22:41:52.036333+00:00", "meta": {"OBJECT_NAME": "YAOGAN-27", "OBJECT_ID": "2015-040A", "EPOCH": "2025-12-19T18:30:10.780704", "MEAN_MOTION": 13.16060606, "ECCENTRICITY": 0.0007579, "INCLINATION": 100.1006, "RA_OF_ASC_NODE": 343.073, "ARG_OF_PERICENTER": 269.2648, "MEAN_ANOMALY": 90.7597, "EPHEMERIS_TYPE": 0, "CLASSIFICATION_TYPE": "U", "NORAD_CAT_ID": 40878, "ELEMENT_SET_NO": 999, "REV_AT_EPOCH": 49406, "BSTAR": -0.00065218, "MEAN_MOTION_DOT": -2.9e-06, "MEAN_MOTION_DDOT": 0}, "tle": {"line1": "1 40878U 15040A   25353.77095811 -.00000290  00000+0 -65218-3 0  9990", "line2": "2 40878 100.1006 343.0730 0007579 269.2648  90.7597 13.16060606494061"}}, "geometry": {"type": "Point", "coordinates": [-167.97768370495578, 69.68601905504443]}}, {"type": "Feature", "properties": {"norad_id": 40894, "name": "GAOFEN-9 01", "group": "resource", "lat": -40.71288830914913, "lon": 39.234549788509476, "alt_km": 616.2447967862136, "timestamp": "2025-12-19T22:41:52.036343+00:00", "meta": {"OBJECT_NAME": "GAOFEN-9 01", "OBJECT_ID": "2015-047A", "EPOCH": "2025-12-19T18:01:20.676864", "MEAN_MOTION": 14.82438363, "ECCENTRICITY": 0.0027831, "INCLINATION": 97.6534, "RA_OF_ASC_NODE": 32.4034, "ARG_OF_PERICENTER": 11.8038, "MEAN_ANOMALY": 348.3822, "EPHEMERIS_TYPE": 0, "CLASSIFICATION_TYPE": "U", "NORAD_CAT_ID": 40894, "ELEMENT_SET_NO": 999, "REV_AT_EPOCH": 55360, "BSTAR": 0.00010524, "MEAN_MOTION_DOT": 7.98e-06, "MEAN_MOTION_DDOT": 0}, "tle": {"line1": "1 40894U 15047A   25353.75093376  .00000798  00000+0  10524-3 0  9998", "line2": "2 40894  97.6534  32.4034 0027831  11.8038 348.3822 14.82438363553600"}}, "geometry": {"type": "Point", "coordinates": [39.234549788509476, -40.71288830914913]}}, {"type": "Feature", "properties": {"norad_id": 41026, "name": "YAOGAN-28", "group": "resource", "lat": 61.197735013830666, "lon": -35.01815769349832, "alt_km": 478.10779714573346, "timestamp": "2025-12-19T22:41:52.036353+00:00", "meta": {"OBJECT_NAME": "YAOGAN-28", "OBJECT_ID": "2015-064A", "EPOCH": "2025-12-19T19:01:57.180288", "MEAN_MOTION": 15.24461361, "ECCENTRICITY": 0.0012611, "INCLINATION": 97.2809, "RA_OF_ASC_NODE": 131.3866, "ARG_OF_PERICENTER": 103.564, "MEAN_ANOMALY": 256.7003, "EPHEMERIS_TYPE": 0, "CLASSIFICATION_TYPE": "U", "NORAD_CAT_ID": 41026, "ELEMENT_SET_NO": 999, "REV_AT_EPOCH": 56332, "BSTAR": 0.00024307, "MEAN_MOTION_DOT": 5.912e-05, "MEAN_MOTION_DDOT": 0}, "tle": {"line1": "1 41026U 15064A   25353.79302292  .00005912  00000+0  24307-3 0  9996", "line2": "2 41026  97.2809 131.3866 0012611 103.5640 256.7003 15.24461361563323"}}, "geometry": {"type": "Point", "coordinates": [-35.01815769349832, 61.197735013830666]}}, {"type": "Feature", "properties": {"norad_id": 41038, "name": "YAOGAN-29", "group": "resource", "lat": -38.67921708530209, "lon": -169.34093858677593, "alt_km": 626.4477831664199, "timestamp": "2025-12-19T22:41:52.036364+00:00", "meta": {"OBJECT_NAME": "YAOGAN-29", "OBJECT_ID": "2015-069A", "EPOCH": "2025-12-19T18:28:26.914080", "MEAN_MOTION": 14.82891017, "ECCENTRICITY": 4.56e-05, "INCLINATION": 98.0212, "RA_OF_ASC_NODE": 16.9644, "ARG_OF_PERICENTER": 177.4655, "MEAN_ANOMALY": 182.656, "EPHEMERIS_TYPE": 0, "CLASSIFICATION_TYPE": "U", "NORAD_CAT_ID": 41038, "ELEMENT_SET_NO": 999, "REV_AT_EPOCH": 54403, "BSTAR": 9.7575e-05, "MEAN_MOTION_DOT": 7.37e-06, "MEAN_MOTION_DDOT": 0}, "tle": {"line1": "1 41038U 15069A   25353.76975595  .00000737  00000+0  97575-4 0  9991", "line2": "2 41038  98.0212  16.9644 0000456 177.4655 182.6560 14.82891017544035"}}, "geometry": {"type": "Point", "coordinates": [-169.34093858677593, -38.67921708530209]}}, {"type": "Feature", "properties": {"norad_id": 41167, "name": "KENT RIDGE 1", "group": "resource", "lat": 6.8680587004217974, "lon": -49.106835364920165, "alt_km": 496.05296627685493, "timestamp": "2025-12-19T22:41:52.036374+00:00", "meta": {"OBJECT_NAME": "KENT RIDGE 1", "OBJECT_ID": "2015-077B", "EPOCH": "2025-12-19T15:44:19.065408", "MEAN_MOTION": 15.21687, "ECCENTRICITY": 0.0008521, "INCLINATION": 14.9781, "RA_OF_ASC_NODE": 159.8192, "ARG_OF_PERICENTER": 228.6, "MEAN_ANOMALY": 131.3589, "EPHEMERIS_TYPE": 0, "CLASSIFICATION_TYPE": "U", "NORAD_CAT_ID": 41167, "ELEMENT_SET_NO": 999, "REV_AT_EPOCH": 55369, "BSTAR": 0.00012437, "MEAN_MOTION_DOT": 3.652e-05, "MEAN_MOTION_DDOT": 0}, "tle": {"line1": "1 41167U 15077B   25353.65577622  .00003652  00000+0  12437-3 0  9992", "line2": "2 41167  14.9781 159.8192 0008521 228.6000 131.3589 15.21687000553698"}}, "geometry": {"type": "Point", "coordinates": [-49.106835364920165, 6.8680587004217974]}}, {"type": "Feature", "properties": {"norad_id": 41194, "name": "GAOFEN-4", "group": "resource", "lat": 0.18568376693048919, "lon": 174.9584805540546, "alt_km": 35773.373483712865, "timestamp": "2025-12-19T22:41:52.036386+00:00", "meta": {"OBJECT_NAME": "GAOFEN-4", "OBJECT_ID": "2015-083A", "EPOCH": "2025-12-19T15:27:26.627616", "MEAN_MOTION": 1.00273138, "ECCENTRICITY": 0.0002945, "INCLINATION": 0.1878, "RA_OF_ASC_NODE": 81.7841, "ARG_OF_PERICENTER": 93.4275, "MEAN_ANOMALY": 250.8523, "EPHEMERIS_TYPE": 0, "CLASSIFICATION_TYPE": "U", "NORAD_CAT_ID": 41194, "ELEMENT_SET_NO": 999, "REV_AT_EPOCH": 3672, "BSTAR": 0, "MEAN_MOTION_DOT": -3.11e-06, "MEAN_MOTION_DDOT": 0}, "tle": {"line1": "1 41194U 15083A   25353.64405819 -.00000311  00000+0  00000+0 0  9995", "line2": "2 41194   0.1878  81.7841 0002945  93.4275 250.8523  1.00273138 36722"}}, "geometry": {"type": "Point", "coordinates": [174.9584805540546, 0.18568376693048919]}}, {"type": "Feature", "properties": {"norad_id": 41240, "name": "JASON-3", "group": "resource", "lat": -45.48662293972225, "lon": -10.436736755959565, "alt_km": 1312.4988029669576, "timestamp": "2025-12-19T22:41:52.036396+00:00", "meta": {"OBJECT_NAME": "JASON-3", "OBJECT_ID": "2016-002A", "EPOCH": "2025-12-19T17:46:19.752960", "MEAN_MOTION": 12.87626867, "ECCENTRICITY": 0.0007211, "INCLINATION": 66.0398, "RA_OF_ASC_NODE": 143.1057, "ARG_OF_PERICENTER": 271.2199, "MEAN_ANOMALY": 88.7994, "EPHEMERIS_TYPE": 0, "CLASSIFICATION_TYPE": "U", "NORAD_CAT_ID": 41240, "ELEMENT_SET_NO": 999, "REV_AT_EPOCH": 46414, "BSTAR": 1.0942e-05, "MEAN_MOTION_DOT": -5.9e-07, "MEAN_MOTION_DDOT": 0}, "tle": {"line1": "1 41240U 16002A   25353.74050640 -.00000059  00000+0  10942-4 0  9998", "line2": "2 41240  66.0398 143.1057 0007211 271.2199  88.7994 12.87626867464145"}}, "geometry": {"type": "Point", "coordinates": [-10.436736755959565, -45.48662293972225]}}, {"type": "Feature", "properties": {"norad_id": 41335, "name": "SENTINEL-3A", "group": "resource", "lat": -79.43290753139699, "lon": -175.6454891810929, "alt_km": 810.6415803394475, "timestamp": "2025-12-19T22:41:52.036407+00:00", "meta": {"OBJECT_NAME": "SENTINEL-3A", "OBJECT_ID": "2016-011A", "EPOCH": "2025-12-19T18:05:54.444768", "MEAN_MOTION": 14.26733239, "ECCENTRICITY": 9.1e-05, "INCLINATION": 98.6306, "RA_OF_ASC_NODE": 58.6686, "ARG_OF_PERICENTER": 93.494, "MEAN_ANOMALY": 266.6344, "EPHEMERIS_TYPE": 0, "CLASSIFICATION_TYPE": "U", "NORAD_CAT_ID": 41335, "ELEMENT_SET_NO": 999, "REV_AT_EPOCH": 51247, "BSTAR": 6.0072e-05, "MEAN_MOTION_DOT": 1.02e-06, "MEAN_MOTION_DDOT": 0}, "tle": {"line1": "1 41335U 16011A   25353.75410237  .00000102  00000+0  60072-4 0  9993", "line2": "2 41335  98.6306  58.6686 0000910  93.4940 266.6344 14.26733239512478"}}, "geometry": {"type": "Point", "coordinates": [-175.6454891810929, -79.43290753139699]}}]}